CCSDS_OMM_VERS = 2.0
CREATION_DATE  = 
ORIGINATOR     = 

OBJECT_NAME    = STARLINK-36397
OBJECT_ID      = 2026-014G
CENTER_NAME    = EARTH
REF_FRAME      = TEME
TIME_SYSTEM    = UTC
MEAN_ELEMENT_THEORY = SGP/SGP4

EPOCH          = 2026-02-16T02:57:34.248384
MEAN_MOTION    = 15.75288556
ECCENTRICITY   = .0002167
INCLINATION    = 97.2837
RA_OF_ASC_NODE = 290.9178
ARG_OF_PERICENTER = 72.8410
MEAN_ANOMALY   = 287.3092

EPHEMERIS_TYPE = 0
CLASSIFICATION_TYPE = U
NORAD_CAT_ID   = 67538
ELEMENT_SET_NO = 999
REV_AT_EPOCH   = 517
BSTAR          = .22046E-2
MEAN_MOTION_DOT = .343751E-2
MEAN_MOTION_DDOT = 0

CCSDS_OMM_VERS = 2.0
CREATION_DATE  = 
ORIGINATOR     = 

OBJECT_NAME    = STARLINK-36573
OBJECT_ID      = 2026-014H
CENTER_NAME    = EARTH
REF_FRAME      = TEME
TIME_SYSTEM    = UTC
MEAN_ELEMENT_THEORY = SGP/SGP4

EPOCH          = 2026-02-15T13:50:55.703040
MEAN_MOTION    = 15.80907014
ECCENTRICITY   = .000223
INCLINATION    = 97.2830
RA_OF_ASC_NODE = 290.4370
ARG_OF_PERICENTER = 167.0199
MEAN_ANOMALY   = 193.1127

EPHEMERIS_TYPE = 0
CLASSIFICATION_TYPE = U
NORAD_CAT_ID   = 67539
ELEMENT_SET_NO = 999
REV_AT_EPOCH   = 509
BSTAR          = .25211E-2
MEAN_MOTION_DOT = .514482E-2
MEAN_MOTION_DDOT = 0

CCSDS_OMM_VERS = 2.0
CREATION_DATE  = 
ORIGINATOR     = 

OBJECT_NAME    = STARLINK-36585
OBJECT_ID      = 2026-014J
CENTER_NAME    = EARTH
REF_FRAME      = TEME
TIME_SYSTEM    = UTC
MEAN_ELEMENT_THEORY = SGP/SGP4

EPOCH          = 2026-02-16T04:17:21.744096
MEAN_MOTION    = 15.75194557
ECCENTRICITY   = .0002835
INCLINATION    = 97.2847
RA_OF_ASC_NODE = 290.9933
ARG_OF_PERICENTER = 73.4125
MEAN_ANOMALY   = 286.7452

EPHEMERIS_TYPE = 0
CLASSIFICATION_TYPE = U
NORAD_CAT_ID   = 67540
ELEMENT_SET_NO = 999
REV_AT_EPOCH   = 518
BSTAR          = .1553E-2
MEAN_MOTION_DOT = .238156E-2
MEAN_MOTION_DDOT = 0

CCSDS_OMM_VERS = 2.0
CREATION_DATE  = 
ORIGINATOR     = 

OBJECT_NAME    = STARLINK-36579
OBJECT_ID      = 2026-014K
CENTER_NAME    = EARTH
REF_FRAME      = TEME
TIME_SYSTEM    = UTC
MEAN_ELEMENT_THEORY = SGP/SGP4

EPOCH          = 2026-02-16T04:06:10.345248
MEAN_MOTION    = 15.75192720
ECCENTRICITY   = .0001513
INCLINATION    = 97.2841
RA_OF_ASC_NODE = 291.0072
ARG_OF_PERICENTER = 82.3250
MEAN_ANOMALY   = 277.8187

EPHEMERIS_TYPE = 0
CLASSIFICATION_TYPE = U
NORAD_CAT_ID   = 67541
ELEMENT_SET_NO = 999
REV_AT_EPOCH   = 518
BSTAR          = .17698E-2
MEAN_MOTION_DOT = .272475E-2
MEAN_MOTION_DDOT = 0

CCSDS_OMM_VERS = 2.0
CREATION_DATE  = 
ORIGINATOR     = 

OBJECT_NAME    = STARLINK-35934
OBJECT_ID      = 2026-014L
CENTER_NAME    = EARTH
REF_FRAME      = TEME
TIME_SYSTEM    = UTC
MEAN_ELEMENT_THEORY = SGP/SGP4

EPOCH          = 2026-02-16T03:26:03.973056
MEAN_MOTION    = 15.80931854
ECCENTRICITY   = .000326
INCLINATION    = 97.2834
RA_OF_ASC_NODE = 291.0451
ARG_OF_PERICENTER = 51.7039
MEAN_ANOMALY   = 308.4522

EPHEMERIS_TYPE = 0
CLASSIFICATION_TYPE = U
NORAD_CAT_ID   = 67542
ELEMENT_SET_NO = 999
REV_AT_EPOCH   = 517
BSTAR          = .16686E-2
MEAN_MOTION_DOT = .333793E-2
MEAN_MOTION_DDOT = 0

CCSDS_OMM_VERS = 2.0
CREATION_DATE  = 
ORIGINATOR     = 

OBJECT_NAME    = STARLINK-36581
OBJECT_ID      = 2026-014M
CENTER_NAME    = EARTH
REF_FRAME      = TEME
TIME_SYSTEM    = UTC
MEAN_ELEMENT_THEORY = SGP/SGP4

EPOCH          = 2026-02-16T04:00:00.999936
MEAN_MOTION    = 15.75181268
ECCENTRICITY   = .0001615
INCLINATION    = 97.2844
RA_OF_ASC_NODE = 291.0640
ARG_OF_PERICENTER = 90.8298
MEAN_ANOMALY   = 33.0691

EPHEMERIS_TYPE = 0
CLASSIFICATION_TYPE = U
NORAD_CAT_ID   = 67543
ELEMENT_SET_NO = 999
REV_AT_EPOCH   = 523
BSTAR          = .22265E-3
MEAN_MOTION_DOT = .33197E-3
MEAN_MOTION_DDOT = 0

CCSDS_OMM_VERS = 2.0
CREATION_DATE  = 
ORIGINATOR     = 

OBJECT_NAME    = STARLINK-36565
OBJECT_ID      = 2026-014N
CENTER_NAME    = EARTH
REF_FRAME      = TEME
TIME_SYSTEM    = UTC
MEAN_ELEMENT_THEORY = SGP/SGP4

EPOCH          = 2026-02-16T04:00:00.999936
MEAN_MOTION    = 15.75161463
ECCENTRICITY   = .0001324
INCLINATION    = 97.2851
RA_OF_ASC_NODE = 291.0509
ARG_OF_PERICENTER = 91.2728
MEAN_ANOMALY   = 358.6169

EPHEMERIS_TYPE = 0
CLASSIFICATION_TYPE = U
NORAD_CAT_ID   = 67544
ELEMENT_SET_NO = 999
REV_AT_EPOCH   = 523
BSTAR          = .47217E-3
MEAN_MOTION_DOT = .70795E-3
MEAN_MOTION_DDOT = 0

CCSDS_OMM_VERS = 2.0
CREATION_DATE  = 
ORIGINATOR     = 

OBJECT_NAME    = STARLINK-36583
OBJECT_ID      = 2026-014P
CENTER_NAME    = EARTH
REF_FRAME      = TEME
TIME_SYSTEM    = UTC
MEAN_ELEMENT_THEORY = SGP/SGP4

EPOCH          = 2026-02-16T04:11:46.036896
MEAN_MOTION    = 15.75154541
ECCENTRICITY   = .0002094
INCLINATION    = 97.2844
RA_OF_ASC_NODE = 290.9996
ARG_OF_PERICENTER = 78.6013
MEAN_ANOMALY   = 281.5487

EPHEMERIS_TYPE = 0
CLASSIFICATION_TYPE = U
NORAD_CAT_ID   = 67545
ELEMENT_SET_NO = 999
REV_AT_EPOCH   = 518
BSTAR          = .23025E-2
MEAN_MOTION_DOT = .357535E-2
MEAN_MOTION_DDOT = 0

CCSDS_OMM_VERS = 2.0
CREATION_DATE  = 
ORIGINATOR     = 

OBJECT_NAME    = STARLINK-36580
OBJECT_ID      = 2026-014Q
CENTER_NAME    = EARTH
REF_FRAME      = TEME
TIME_SYSTEM    = UTC
MEAN_ELEMENT_THEORY = SGP/SGP4

EPOCH          = 2026-02-16T03:45:51.459840
MEAN_MOTION    = 15.75215621
ECCENTRICITY   = .0002102
INCLINATION    = 97.2843
RA_OF_ASC_NODE = 291.0247
ARG_OF_PERICENTER = 87.3196
MEAN_ANOMALY   = 272.8310

EPHEMERIS_TYPE = 0
CLASSIFICATION_TYPE = U
NORAD_CAT_ID   = 67546
ELEMENT_SET_NO = 999
REV_AT_EPOCH   = 518
BSTAR          = .23506E-2
MEAN_MOTION_DOT = .366358E-2
MEAN_MOTION_DDOT = 0

CCSDS_OMM_VERS = 2.0
CREATION_DATE  = 
ORIGINATOR     = 

OBJECT_NAME    = STARLINK-36584
OBJECT_ID      = 2026-014R
CENTER_NAME    = EARTH
REF_FRAME      = TEME
TIME_SYSTEM    = UTC
MEAN_ELEMENT_THEORY = SGP/SGP4

EPOCH          = 2026-02-16T04:00:00.999936
MEAN_MOTION    = 15.75407594
ECCENTRICITY   = .0001346
INCLINATION    = 97.2851
RA_OF_ASC_NODE = 291.0755
ARG_OF_PERICENTER = 97.0781
MEAN_ANOMALY   = 58.7096

EPHEMERIS_TYPE = 0
CLASSIFICATION_TYPE = U
NORAD_CAT_ID   = 67547
ELEMENT_SET_NO = 999
REV_AT_EPOCH   = 523
BSTAR          = -.27085E-2
MEAN_MOTION_DOT = -.389917E-2
MEAN_MOTION_DDOT = 0

CCSDS_OMM_VERS = 2.0
CREATION_DATE  = 
ORIGINATOR     = 

OBJECT_NAME    = STARLINK-36586
OBJECT_ID      = 2026-014S
CENTER_NAME    = EARTH
REF_FRAME      = TEME
TIME_SYSTEM    = UTC
MEAN_ELEMENT_THEORY = SGP/SGP4

EPOCH          = 2026-02-16T03:15:57.156480
MEAN_MOTION    = 15.80716015
ECCENTRICITY   = .0001291
INCLINATION    = 97.2836
RA_OF_ASC_NODE = 291.0550
ARG_OF_PERICENTER = 130.0414
MEAN_ANOMALY   = 230.0968

EPHEMERIS_TYPE = 0
CLASSIFICATION_TYPE = U
NORAD_CAT_ID   = 67548
ELEMENT_SET_NO = 999
REV_AT_EPOCH   = 518
BSTAR          = .16291E-2
MEAN_MOTION_DOT = .322257E-2
MEAN_MOTION_DDOT = 0

CCSDS_OMM_VERS = 2.0
CREATION_DATE  = 
ORIGINATOR     = 

OBJECT_NAME    = STARLINK-36564
OBJECT_ID      = 2026-014T
CENTER_NAME    = EARTH
REF_FRAME      = TEME
TIME_SYSTEM    = UTC
MEAN_ELEMENT_THEORY = SGP/SGP4

EPOCH          = 2026-02-16T03:57:32.124096
MEAN_MOTION    = 15.75203348
ECCENTRICITY   = .0001851
INCLINATION    = 97.2845
RA_OF_ASC_NODE = 291.0138
ARG_OF_PERICENTER = 126.1894
MEAN_ANOMALY   = 233.9543

EPHEMERIS_TYPE = 0
CLASSIFICATION_TYPE = U
NORAD_CAT_ID   = 67549
ELEMENT_SET_NO = 999
REV_AT_EPOCH   = 512
BSTAR          = .1867E-2
MEAN_MOTION_DOT = .28812E-2
MEAN_MOTION_DDOT = 0

CCSDS_OMM_VERS = 2.0
CREATION_DATE  = 
ORIGINATOR     = 

OBJECT_NAME    = STARLINK-36563
OBJECT_ID      = 2026-014U
CENTER_NAME    = EARTH
REF_FRAME      = TEME
TIME_SYSTEM    = UTC
MEAN_ELEMENT_THEORY = SGP/SGP4

EPOCH          = 2026-02-16T03:51:26.132832
MEAN_MOTION    = 15.75132973
ECCENTRICITY   = .0001495
INCLINATION    = 97.2846
RA_OF_ASC_NODE = 291.0193
ARG_OF_PERICENTER = 82.9916
MEAN_ANOMALY   = 277.1519

EPHEMERIS_TYPE = 0
CLASSIFICATION_TYPE = U
NORAD_CAT_ID   = 67550
ELEMENT_SET_NO = 999
REV_AT_EPOCH   = 518
BSTAR          = .13537E-2
MEAN_MOTION_DOT = .206227E-2
MEAN_MOTION_DDOT = 0

CCSDS_OMM_VERS = 2.0
CREATION_DATE  = 
ORIGINATOR     = 

OBJECT_NAME    = STARLINK-36566
OBJECT_ID      = 2026-014V
CENTER_NAME    = EARTH
REF_FRAME      = TEME
TIME_SYSTEM    = UTC
MEAN_ELEMENT_THEORY = SGP/SGP4

EPOCH          = 2026-02-16T03:48:23.489280
MEAN_MOTION    = 15.75201523
ECCENTRICITY   = .0002062
INCLINATION    = 97.2845
RA_OF_ASC_NODE = 291.0219
ARG_OF_PERICENTER = 107.3603
MEAN_ANOMALY   = 252.7888

EPHEMERIS_TYPE = 0
CLASSIFICATION_TYPE = U
NORAD_CAT_ID   = 67551
ELEMENT_SET_NO = 999
REV_AT_EPOCH   = 517
BSTAR          = .19177E-2
MEAN_MOTION_DOT = .296202E-2
MEAN_MOTION_DDOT = 0

CCSDS_OMM_VERS = 2.0
CREATION_DATE  = 
ORIGINATOR     = 

OBJECT_NAME    = STARLINK-36567
OBJECT_ID      = 2026-014W
CENTER_NAME    = EARTH
REF_FRAME      = TEME
TIME_SYSTEM    = UTC
MEAN_ELEMENT_THEORY = SGP/SGP4

EPOCH          = 2026-02-16T04:00:35.097696
MEAN_MOTION    = 15.75295927
ECCENTRICITY   = .000137
INCLINATION    = 97.2854
RA_OF_ASC_NODE = 291.0071
ARG_OF_PERICENTER = 117.5178
MEAN_ANOMALY   = 242.6226

EPHEMERIS_TYPE = 0
CLASSIFICATION_TYPE = U
NORAD_CAT_ID   = 67552
ELEMENT_SET_NO = 999
REV_AT_EPOCH   = 517
BSTAR          = .24582E-2
MEAN_MOTION_DOT = .385327E-2
MEAN_MOTION_DDOT = 0

